{
  "norad_id": 57336,
  "name": "STARLINK-6320",
  "history": [
    {
      "epoch": "2026-03-28T20:01:52.672224",
      "apogee_km": 486.37879384063035,
      "perigee_km": 484.7249193737425,
      "latitude_deg": -27.98869455908795,
      "longitude_deg": -6.274808639893308,
      "semi_major_axis_km": 6863.688856607186,
      "eccentricity": 0.00012048,
      "inclination_deg": 43.0013,
      "raan_deg": 140.918,
      "arg_perigee_deg": 274.6507,
      "mean_anomaly_deg": 85.4206,
      "mean_motion_rev_day": 15.26744556
    },
    {
      "epoch": "2026-03-29T03:52:54.964128",
      "apogee_km": 486.40201547091965,
      "perigee_km": 484.6902129022419,
      "latitude_deg": 14.368282827760764,
      "longitude_deg": 25.127737920032814,
      "semi_major_axis_km": 6863.6831141865805,
      "eccentricity": 0.0001247,
      "inclination_deg": 43.0018,
      "raan_deg": 139.0728,
      "arg_perigee_deg": 273.2957,
      "mean_anomaly_deg": 86.7752,
      "mean_motion_rev_day": 15.26746472
    }
  ]
}